{
    "links": {
        "self": "http://www.neowsapp.com/rest/v1/neo/3831917?api_key=iIulBulltgU6a56xZRHN4H3l9WmuAYTsLGpBGhQ2"
    },
    "id": "3831917",
    "neo_reference_id": "3831917",
    "name": "(2018 UR1)",
    "designation": "2018 UR1",
    "nasa_jpl_url": "http://ssd.jpl.nasa.gov/sbdb.cgi?sstr=3831917",
    "absolute_magnitude_h": 23.5,
    "estimated_diameter": {
        "kilometers": {
            "estimated_diameter_min": 0.0530340723,
            "estimated_diameter_max": 0.1185877909
        },
        "meters": {
            "estimated_diameter_min": 53.0340723319,
            "estimated_diameter_max": 118.5877908577
        },
        "miles": {
            "estimated_diameter_min": 0.0329538346,
            "estimated_diameter_max": 0.0736870142
        },
        "feet": {
            "estimated_diameter_min": 173.9963058693,
            "estimated_diameter_max": 389.0675677576
        }
    },
    "is_potentially_hazardous_asteroid": false,
    "close_approach_data": [
        {
            "close_approach_date": "2018-10-19",
            "close_approach_date_full": "2018-Oct-19 22:24",
            "epoch_date_close_approach": 1539987840000,
            "relative_velocity": {
                "kilometers_per_second": "32.4492773347",
                "kilometers_per_hour": "116817.3984047645",
                "miles_per_hour": "72585.7884698938"
            },
            "miss_distance": {
                "astronomical": "0.1618384885",
                "lunar": "62.9551720265",
                "kilometers": "24210693.163619495",
                "miles": "15043827.140339231"
            },
            "orbiting_body": "Earth"
        }
    ],
    "orbital_data": {
        "orbit_id": "4",
        "orbit_determination_date": "2018-12-25 06:57:18",
        "first_observation_date": "2018-10-20",
        "last_observation_date": "2018-11-06",
        "data_arc_in_days": 17,
        "observations_used": 32,
        "orbit_uncertainty": "8",
        "minimum_orbit_intersection": ".160706",
        "jupiter_tisserand_invariant": "2.601",
        "epoch_osculation": "2458413.5",
        "eccentricity": ".590940693002016",
        "semi_major_axis": "2.585297206003681",
        "inclination": "58.86825775927166",
        "ascending_node_longitude": "208.575122148859",
        "orbital_period": "1518.322899390613",
        "perihelion_distance": "1.05753988347169",
        "perihelion_argument": "138.7705771949276",
        "aphelion_distance": "4.113054528535672",
        "perihelion_time": "2458375.595725648509",
        "mean_anomaly": "8.987244262741129",
        "mean_motion": ".2371037149900644",
        "equinox": "J2000",
        "orbit_class": {
            "orbit_class_type": "AMO",
            "orbit_class_description": "Near-Earth asteroid orbits similar to that of 1221 Amor",
            "orbit_class_range": "1.017 AU < q (perihelion) < 1.3 AU"
        }
    },
    "is_sentry_object": false
}